{
  "type": "FeatureCollection",
  "features": [
    {
      "type": "Feature",
      "properties": {
        "norad_id": 43706,
        "name": "BEIDOU-3 M17 (C36)",
        "group": "beidou",
        "lat": 25.590998182071086,
        "lon": -11.990383094390664,
        "alt_km": 21540.98537846423,
        "timestamp": "2025-12-23T09:49:07.348575+00:00",
        "meta_object_name": "BEIDOU-3 M17 (C36)",
        "meta_object_id": "2018-093A",
        "meta_epoch": "2025-12-22T11:03:17.644896",
        "meta_mean_motion": 1.86228432,
        "meta_eccentricity": 0.00060427,
        "meta_inclination": 54.173,
        "meta_ra_of_asc_node": 188.2918,
        "meta_arg_of_pericenter": 307.405,
        "meta_mean_anomaly": 284.4943,
        "meta_ephemeris_type": 0,
        "meta_classification_type": "U",
        "meta_norad_cat_id": 43706,
        "meta_element_set_no": 999,
        "meta_rev_at_epoch": 4824,
        "meta_bstar": 0,
        "meta_mean_motion_dot": 9.4e-07,
        "meta_mean_motion_ddot": 0,
        "tle_line1": "1 43706U 18093A   25356.46062089  .00000094  00000+0  00000+0 0  9998",
        "tle_line2": "2 43706  54.1730 188.2918 0006042 307.4050 284.4943  1.86228432 48248"
      },
      "geometry": {
        "type": "Point",
        "coordinates": [
          -11.990383094390664,
          25.590998182071086
        ]
      }
    },
    {
      "type": "Feature",
      "properties": {
        "norad_id": 43707,
        "name": "BEIDOU-3 M18 (C37)",
        "group": "beidou",
        "lat": -44.898395504790905,
        "lon": 54.32891798427936,
        "alt_km": 21540.468729166045,
        "timestamp": "2025-12-23T09:49:07.348587+00:00",
        "meta_object_name": "BEIDOU-3 M18 (C37)",
        "meta_object_id": "2018-093B",
        "meta_epoch": "2025-12-20T21:39:28.587744",
        "meta_mean_motion": 1.86226757,
        "meta_eccentricity": 0.00062168,
        "meta_inclination": 54.1741,
        "meta_ra_of_asc_node": 188.3365,
        "meta_arg_of_pericenter": 353.7926,
        "meta_mean_anomaly": 6.2524,
        "meta_ephemeris_type": 0,
        "meta_classification_type": "U",
        "meta_norad_cat_id": 43707,
        "meta_element_set_no": 999,
        "meta_rev_at_epoch": 4821,
        "meta_bstar": 0,
        "meta_mean_motion_dot": 9.5e-07,
        "meta_mean_motion_ddot": 0,
        "tle_line1": "1 43707U 18093B   25354.90241421  .00000095  00000+0  00000+0 0  9996",
        "tle_line2": "2 43707  54.1741 188.3365 0006216 353.7926   6.2524  1.86226757 48217"
      },
      "geometry": {
        "type": "Point",
        "coordinates": [
          54.32891798427936,
          -44.898395504790905
        ]
      }
    },
    {
      "type": "Feature",
      "properties": {
        "norad_id": 44231,
        "name": "BEIDOU-2 G8 (C01)",
        "group": "beidou",
        "lat": -1.300101032815083,
        "lon": 24.053660218383225,
        "alt_km": 35763.51164570486,
        "timestamp": "2025-12-23T09:49:07.348598+00:00",
        "meta_object_name": "BEIDOU-2 G8 (C01)",
        "meta_object_id": "2019-027A",
        "meta_epoch": "2025-12-19T12:14:23.449632",
        "meta_mean_motion": 1.00276563,
        "meta_eccentricity": 0.0008196,
        "meta_inclination": 1.6785,
        "meta_ra_of_asc_node": 74.7229,
        "meta_arg_of_pericenter": 258.5641,
        "meta_mean_anomaly": 83.1013,
        "meta_ephemeris_type": 0,
        "meta_classification_type": "U",
        "meta_norad_cat_id": 44231,
        "meta_element_set_no": 999,
        "meta_rev_at_epoch": 2427,
        "meta_bstar": 0,
        "meta_mean_motion_dot": -2.24e-06,
        "meta_mean_motion_ddot": 0,
        "tle_line1": "1 44231U 19027A   25353.50999363 -.00000224  00000+0  00000+0 0  9992",
        "tle_line2": "2 44231   1.6785  74.7229 0008196 258.5641  83.1013  1.00276563 24270"
      },
      "geometry": {
        "type": "Point",
        "coordinates": [
          24.053660218383225,
          -1.300101032815083
        ]
      }
    },
    {
      "type": "Feature",
      "properties": {
        "norad_id": 44337,
        "name": "BEIDOU-3 IGSO-2 (C39)",
        "group": "beidou",
        "lat": -15.090137877746388,
        "lon": -8.801661344622667,
        "alt_km": 35631.2062218361,
        "timestamp": "2025-12-23T09:49:07.348614+00:00",
        "meta_object_name": "BEIDOU-3 IGSO-2 (C39)",
        "meta_object_id": "2019-035A",
        "meta_epoch": "2025-12-22T20:34:56.810208",
        "meta_mean_motion": 1.00268278,
        "meta_eccentricity": 0.00377374,
        "meta_inclination": 55.2288,
        "meta_ra_of_asc_node": 160.4125,
        "meta_arg_of_pericenter": 202.3518,
        "meta_mean_anomaly": 156.9915,
        "meta_ephemeris_type": 0,
        "meta_classification_type": "U",
        "meta_norad_cat_id": 44337,
        "meta_element_set_no": 999,
        "meta_rev_at_epoch": 2389,
        "meta_bstar": 0,
        "meta_mean_motion_dot": -7.6e-07,
        "meta_mean_motion_ddot": 0,
        "tle_line1": "1 44337U 19035A   25356.85760197 -.00000076  00000+0  00000+0 0  9995",
        "tle_line2": "2 44337  55.2288 160.4125 0037737 202.3518 156.9915  1.00268278 23892"
      },
      "geometry": {
        "type": "Point",
        "coordinates": [
          -8.801661344622667,
          -15.090137877746388
        ]
      }
    },
    {
      "type": "Feature",
      "properties": {
        "norad_id": 44542,
        "name": "BEIDOU-3 M24 (C46)",
        "group": "beidou",
        "lat": -10.68312945291809,
        "lon": 16.431225566244713,
        "alt_km": 21555.94270954803,
        "timestamp": "2025-12-23T09:49:07.348626+00:00",
        "meta_object_name": "BEIDOU-3 M24 (C46)",
        "meta_object_id": "2019-061A",
        "meta_epoch": "2025-12-20T23:21:37.865088",
        "meta_mean_motion": 1.86229471,
        "meta_eccentricity": 0.0009592,
        "meta_inclination": 54.4004,
        "meta_ra_of_asc_node": 188.7381,
        "meta_arg_of_pericenter": 25.7188,
        "meta_mean_anomaly": 334.3821,
        "meta_ephemeris_type": 0,
        "meta_classification_type": "U",
        "meta_norad_cat_id": 44542,
        "meta_element_set_no": 999,
        "meta_rev_at_epoch": 4247,
        "meta_bstar": 0,
        "meta_mean_motion_dot": 9.6e-07,
        "meta_mean_motion_ddot": 0,
        "tle_line1": "1 44542U 19061A   25354.97335492  .00000096  00000+0  00000+0 0  9990",
        "tle_line2": "2 44542  54.4004 188.7381 0009592  25.7188 334.3821  1.86229471 42471"
      },
      "geometry": {
        "type": "Point",
        "coordinates": [
          16.431225566244713,
          -10.68312945291809
        ]
      }
    },
    {
      "type": "Feature",
      "properties": {
        "norad_id": 44543,
        "name": "BEIDOU-3 M23 (C45)",
        "group": "beidou",
        "lat": 51.41079402904425,
        "lon": -55.305873950943116,
        "alt_km": 21519.266154291952,
        "timestamp": "2025-12-23T09:49:07.348638+00:00",
        "meta_object_name": "BEIDOU-3 M23 (C45)",
        "meta_object_id": "2019-061B",
        "meta_epoch": "2025-12-22T04:16:38.631360",
        "meta_mean_motion": 1.86227761,
        "meta_eccentricity": 0.00060882,
        "meta_inclination": 54.3995,
        "meta_ra_of_asc_node": 188.6659,
        "meta_arg_of_pericenter": 26.1092,
        "meta_mean_anomaly": 334.4978,
        "meta_ephemeris_type": 0,
        "meta_classification_type": "U",
        "meta_norad_cat_id": 44543,
        "meta_element_set_no": 999,
        "meta_rev_at_epoch": 4250,
        "meta_bstar": 0,
        "meta_mean_motion_dot": 9.4e-07,
        "meta_mean_motion_ddot": 0,
        "tle_line1": "1 44543U 19061B   25356.17822490  .00000094  00000+0  00000+0 0  9992",
        "tle_line2": "2 44543  54.3995 188.6659 0006088  26.1092 334.4978  1.86227761 42501"
      },
      "geometry": {
        "type": "Point",
        "coordinates": [
          -55.305873950943116,
          51.41079402904425
        ]
      }
    },
    {
      "type": "Feature",
      "properties": {
        "norad_id": 44793,
        "name": "BEIDOU-3 M22 (C44)",
        "group": "beidou",
        "lat": -44.380766804278664,
        "lon": -99.08776770498734,
        "alt_km": 21531.137666290848,
        "timestamp": "2025-12-23T09:49:07.348650+00:00",
        "meta_object_name": "BEIDOU-3 M22 (C44)",
        "meta_object_id": "2019-078A",
        "meta_epoch": "2025-12-21T21:17:38.154624",
        "meta_mean_motion": 1.86232205,
        "meta_eccentricity": 0.00060942,
        "meta_inclination": 54.1,
        "meta_ra_of_asc_node": 306.0655,
        "meta_arg_of_pericenter": 24.0092,
        "meta_mean_anomaly": 336.0189,
        "meta_ephemeris_type": 0,
        "meta_classification_type": "U",
        "meta_norad_cat_id": 44793,
        "meta_element_set_no": 999,
        "meta_rev_at_epoch": 4134,
        "meta_bstar": 0,
        "meta_mean_motion_dot": -5.9e-07,
        "meta_mean_motion_ddot": 0,
        "tle_line1": "1 44793U 19078A   25355.88724716 -.00000059  00000+0  00000+0 0  9998",
        "tle_line2": "2 44793  54.1000 306.0655 0006094  24.0092 336.0189  1.86232205 41341"
      },
      "geometry": {
        "type": "Point",
        "coordinates": [
          -99.08776770498734,
          -44.380766804278664
        ]
      }
    }
  ]
}